"full_name","e","q","i","om","w","ad","per_y","class","n_obs_used","A1","A2","A3","DT","spkid","prefix","neo","M1","M2","K1","K2","PC","diameter","extent","albedo","rot_per","GM","orbit_id","epoch","epoch_mjd","epoch_cal","equinox","a","ma","n","tp","per","moid","moid_ld","moid_jup","t_jup","sigma_e","sigma_a","sigma_q","sigma_i","sigma_om","sigma_w","sigma_ma","sigma_ad","sigma_n","sigma_tp","sigma_per","rms","A1_sigma","A2_sigma","A3_sigma","DT_sigma"
"     P/2018 P4 (PANSTARRS)",0.4493,3.666,23.11,353.11,8.12,9.65,17.2,JFc,116,,,,,1003584,P,,11.6,14.8,10.,5.,0.03,,,,,,"JPL 6",2458374.5,58374,2018-09-13.0,J2000,6.657,356.82,0.05738,2458429.85,6.27e+03,2.66,1.04e+03,1.28,2.64,1.7e-05,2.4e-04,8.3e-05,7.8e-04,7.7e-05,1.1e-02,3.5e-03,3.5e-04,3.2e-06,6.2e-02,3.5e-01,.40636,,,,
"     C/2018 P5 (PANSTARRS)",0.6409,4.576,7.26,216.24,131.63,20.91,45.5,JFc,93,,,,,1003585,C,,14.5,,4.5,,,,,,,,"JPL 11",2458531.5,58531,2019-02-17.0,J2000,12.74,359.80,0.02167,2458540.72,1.66e+04,3.58,1.39e+03,0.212,2.79,2.5e-05,9.5e-04,2.0e-05,4.2e-05,3.7e-04,2.4e-03,4.3e-04,1.6e-03,2.4e-06,1.9e-02,1.9e+00,.40883,,,,
"     C/2018 R3 (Lemmon)",0.9993,1.291,69.72,324.63,112.88,3938.91,8.74e+04,COM,272,,,,,1003586,C,,11.3,,11.25,,,,,,,,"JPL 11",2458538.5,58538,2019-02-24.0,J2000,1970,360.00,1.127e-05,2458641.70,3.19e+07,0.679,264,0.383,0.491,2.4e-06,7.3e+00,1.1e-06,4.6e-05,2.4e-05,3.9e-05,6.5e-06,1.5e+01,6.3e-08,7.0e-05,1.8e+05,.71387,,,,
"     C/2018 R4 (Fuls)",0.9944,1.709,11.68,298.46,345.15,604.26,5.27e+03,COM,114,,,,,1003587,C,,16.3,,4.5,,,,,,,,"JPL 6",2458363.5,58363,2018-09-02.0,J2000,303,0.03,0.0001869,2458181.17,1.93e+06,0.696,271,1,1.6,8.1e-05,4.3e+00,3.1e-05,1.6e-04,1.2e-03,1.0e-03,7.3e-04,8.6e+00,4.0e-06,5.8e-03,4.1e+04,.57239,,,,
"     C/2018 R5 (Lemmon)",0.8416,3.621,103.76,171.14,178.01,42.09,109,HTC,187,,,,,1003588,C,,14.4,,4.5,,,,,,,,"JPL 6",2458380.5,58380,2018-09-19.0,J2000,22.86,358.98,0.00902,2458493.48,3.99e+04,2.62,1.02e+03,1.35,-0.311,1.4e-04,2.0e-02,5.4e-05,1.2e-03,5.7e-04,2.0e-03,1.4e-03,3.7e-02,1.2e-05,9.8e-03,5.3e+01,.48235,,,,
"     C/2018 S2 (TESS)",0.6149,5.471,64.22,85.13,290.68,22.94,53.5,HTC,803,,,,,1003871,C,,6.7,,11.,,,,,,,,"JPL 1",2458219.5,58219,2018-04-11.0,J2000,14.21,356.17,0.01841,2458427.69,1.96e+04,4.92,1.91e+03,1.84,1.5,8.6e-05,3.3e-03,7.4e-05,1.5e-04,3.6e-04,3.2e-03,1.1e-03,5.4e-03,6.5e-06,3.3e-02,6.9e+00,.16377,,,,
"     C/2018 S3 (TESS)",1.0013,8.000,78.42,24.98,263.85,,,HYP,35,,,,,1003912,C,,10.4,,4.5,,,,,,,,"JPL 1",2457820.5,57820,2017-03-08.0,J2000,-6079,0.00,2.079e-06,2457569.04,,7.78,3.03e+03,6.05,,7.7e-05,3.5e+02,8.9e-05,1.0e-04,1.4e-04,5.3e-04,4.6e-05,,1.8e-07,9.9e-03,,1.191,,,,
"     C/2018 U1 (Lemmon)",1.0008,4.994,108.30,75.48,180.42,,,HYP,2457,,,,,1003592,C,,6.4,9.6,8.75,5.,0.03,,,,,,"JPL 78",2459103.5,59103,2020-09-11.0,J2000,-6188,-0.00,2.025e-06,2459521.31,,3.98,1.55e+03,0.321,,2.9e-06,2.2e+01,1.9e-06,9.7e-06,1.0e-05,3.9e-05,4.5e-06,,1.1e-08,3.8e-04,,.4917,,,,
"     C/2018 V1 (Machholz-Fujikawa-Iwamoto)",1.0004,0.387,143.99,128.72,88.77,,,HYP,750,,,,,1003590,C,,12.8,17.1,6.25,5.,0.03,,,,,,"JPL 10",2458438.5,58438,2018-11-16.0,J2000,-990.7,-0.00,3.161e-05,2458456.01,,0.115,44.8,2.57,-0.624,2.4e-05,6.1e+01,1.9e-06,4.6e-04,4.2e-04,2.1e-04,5.1e-05,,2.9e-06,1.6e-04,,.57816,,,,
"     C/2018 V2 (ATLAS)",0.9029,2.475,159.11,356.79,318.66,48.49,129,HTC,173,,,,,1003594,C,,13.6,,12.25,,,,,,,,"JPL 8",2458560.5,58560,2019-03-18.0,J2000,25.48,0.85,0.007661,2458449.48,4.7e+04,1.52,593,1.32,-1.57,5.2e-06,1.4e-03,2.4e-06,2.2e-05,3.9e-05,1.0e-04,6.9e-05,2.6e-03,6.2e-07,3.1e-04,3.8e+00,.5115,,,,
"     P/2018 VN2 (Leonard)",0.4777,2.123,18.24,226.55,138.78,6.00,8.19,JFc,114,,,,,1003591,P,,16.8,,4.5,,,,,,,,"JPL 6",2458418.5,58418,2018-10-27.0,J2000,4.064,17.28,0.1203,2458274.88,2.99e+03,1.16,450,0.393,2.75,2.2e-05,1.6e-04,1.8e-05,1.7e-04,1.4e-04,1.1e-03,1.0e-03,2.4e-04,7.2e-06,1.9e-03,1.8e-01,.64809,,,,
"     C/2018 V4 (Africano)",0.9848,3.199,69.00,78.38,0.01,418.49,3.06e+03,COM,159,,,,,1003595,C,,15.7,,4.5,,,,,,,,"JPL 5",2458439.5,58439,2018-11-17.0,J2000,210.8,359.97,0.0003219,2458544.19,1.12e+06,2.21,862,1.89,0.816,1.4e-04,1.9e+00,4.3e-05,1.8e-03,6.7e-04,4.3e-03,4.5e-04,3.7e+00,4.3e-06,1.6e-02,1.5e+04,.65044,,,,
"     P/2018 V5 (Trujillo-Sheppard)",0.4746,4.708,10.58,171.33,260.81,13.21,26.8,JFc,21,,,,,1003610,P,,6.4,,19.,,,,,,,,"JPL 4",2458331.5,58331,2018-08-01.0,J2000,8.961,357.65,0.03674,2458395.36,9.8e+03,3.74,1.46e+03,0.495,2.85,3.8e-05,7.0e-04,3.1e-05,6.7e-05,5.5e-04,1.0e-03,2.3e-04,1.0e-03,4.3e-06,7.7e-03,1.2e+00,.20343,,,,
"     C/2018 W1 (Catalina)",0.9377,1.360,83.28,233.59,251.25,42.28,102,HTC,287,,,,,1003598,C,,14.0,15.8,10.,5.,0.03,,,,,,"JPL 12",2458509.5,58509,2019-01-26.0,J2000,21.82,358.98,0.00967,2458615.35,3.72e+04,0.805,313,0.991,0.405,1.9e-06,6.6e-04,8.1e-07,6.2e-05,2.3e-05,4.3e-05,4.6e-05,1.3e-03,4.4e-07,1.0e-04,1.7e+00,.45667,,,,
"     C/2018 W2 (Africano)",1.0008,1.455,116.62,181.85,157.97,,,HYP,1995,,,,,1003596,C,,13.4,,4.5,,,,,,,,"JPL 23",2458691.5,58691,2019-07-27.0,J2000,-1915,-0.00,1.176e-05,2458732.23,,0.494,192,3.14,-0.663,1.1e-06,2.8e+00,1.6e-07,1.1e-05,5.0e-06,1.9e-05,1.0e-06,,2.6e-08,2.5e-05,,.53049,,,,
"     C/2018 X2 (Fitzsimmons)",0.9863,2.126,23.07,340.83,162.05,307.77,1.93e+03,COM,390,,,,,1003597,C,,10.6,14.3,12.75,5.,0.03,,,,,,"JPL 11",2458524.5,58524,2019-02-10.0,J2000,154.9,359.92,0.000511,2458673.03,7.05e+05,1.15,447,1.86,1.69,1.9e-05,2.1e-01,2.8e-06,4.2e-05,2.2e-04,1.9e-04,1.6e-04,4.2e-01,1.0e-06,4.9e-04,1.4e+03,.58716,,,,
"     C/2018 X3 (PANSTARRS)",0.7827,2.699,43.37,78.92,359.83,22.14,43.8,HTC,50,,,,,1003599,C,,16.9,,4.5,,,,,,,,"JPL 4",2458462.5,58462,2018-12-10.0,J2000,12.42,359.53,0.02251,2458483.30,1.6e+04,1.71,667,2.38,1.82,1.1e-04,6.9e-03,1.0e-04,2.8e-03,4.2e-04,5.9e-03,3.1e-04,1.2e-02,1.9e-05,2.0e-02,1.3e+01,.52383,,,,
"     C/2018 Y1 (Iwamoto)",0.9911,1.287,160.40,147.48,358.06,287.25,1.73e+03,COM,2771,,,,,1003600,C,,13.6,,5.25,,,,,,,,"JPL 20",2458545.5,58545,2019-03-03.0,J2000,144.3,0.01,0.0005688,2458521.53,6.33e+05,0.299,116,1.51,-1.29,2.2e-06,3.6e-02,1.6e-07,1.3e-05,9.7e-06,3.7e-05,5.1e-06,7.1e-02,2.1e-07,4.0e-05,2.3e+02,.5126,,,,
"     P/2018 Y2 (Africano)",0.4793,3.893,11.68,297.26,162.50,11.06,20.4,JFc,81,,,,,1003601,P,,10.9,12.9,10.,5.,0.03,,,,,,"JPL 6",2458494.5,58494,2019-01-11.0,J2000,7.478,0.40,0.0482,2458486.10,7.47e+03,2.91,1.13e+03,1.06,2.76,3.6e-05,6.0e-04,1.3e-04,9.8e-04,1.4e-03,3.7e-02,1.2e-02,8.9e-04,5.8e-06,2.5e-01,9.0e-01,.5211,,,,
"     P/2019 A1 (PANSTARRS)",0.5689,2.212,13.74,312.30,150.85,8.05,11.6,JFc,63,,,,,1003602,P,,17.3,,4.5,,,,,,,,"JPL 5",2458501.5,58501,2019-01-18.0,J2000,5.131,8.39,0.08481,2458402.54,4.24e+03,1.24,482,0.641,2.6,6.9e-05,7.2e-04,7.2e-05,4.9e-04,4.0e-04,4.9e-03,1.1e-03,1.1e-03,1.8e-05,9.5e-03,8.9e-01,.41966,,,,
"     P/2019 A2 (ATLAS)",0.3820,3.543,14.86,139.46,324.23,7.92,13.7,JFc,284,,,,,1003603,P,,11.7,13.5,8.25,5.,0.03,,,,,,"JPL 8",2458523.5,58523,2019-02-09.0,J2000,5.733,5.71,0.0718,2458443.95,5.01e+03,2.57,1e+03,0.85,2.78,7.0e-06,9.0e-05,2.2e-05,9.2e-05,1.6e-04,1.3e-03,6.1e-04,1.2e-04,1.7e-06,6.7e-03,1.2e-01,.52973,,,,
"     P/2019 A3 (PANSTARRS)",0.2652,2.313,15.37,31.32,325.48,3.98,5.58,ETc,66,,,,,1003604,P,,19.1,,5.25,,,,,,,,"JPL 7",2458852.5,58852,2020-01-04.0,J2000,3.148,91.80,0.1765,2458332.38,2.04e+03,1.33,516,1.55,3.1,1.6e-06,4.8e-06,8.3e-06,9.8e-05,1.1e-04,4.2e-04,3.8e-04,6.1e-06,4.0e-07,1.0e-03,4.7e-03,.2731,,,,
"     P/2019 A4 (PANSTARRS)",0.0896,2.379,13.32,119.30,341.84,2.85,4.23,ETc,85,,,,,1003605,P,,15.5,,10.,,,,,,,,"JPL 8",2458501.5,58501,2019-01-18.0,J2000,2.613,10.21,0.2333,2458457.72,1.54e+03,1.4,544,2.27,3.37,1.1e-05,5.0e-05,3.2e-05,4.5e-04,2.2e-04,2.8e-02,2.3e-02,5.4e-05,6.6e-06,1.0e-01,4.4e-02,.5072,,,,
"     C/2019 A5 (PANSTARRS)",0.7079,6.324,67.54,146.62,356.04,36.97,101,HTC,70,,,,,1003606,C,,7.3,,12.75,,,,,,,,"JPL 13",2458701.5,58701,2019-08-06.0,J2000,21.65,0.56,0.009785,2458643.95,3.68e+04,5.34,2.08e+03,0.956,1.34,1.5e-05,1.1e-03,1.5e-05,8.5e-05,1.9e-05,1.3e-03,1.6e-04,1.9e-03,7.6e-07,1.7e-02,2.9e+00,.33843,,,,
"     P/2019 A6 (Lemmon-PANSTARRS)",0.6392,1.939,33.23,280.27,156.31,8.81,12.5,JFc,55,,,,,1003607,P,,17.9,,4.5,,,,,,,,"JPL 4",2458488.5,58488,2019-01-05.0,J2000,5.372,10.19,0.07915,2458359.81,4.55e+03,0.983,383,1.31,2.28,4.1e-05,6.3e-04,2.9e-05,6.2e-04,6.1e-04,1.1e-03,1.8e-03,1.0e-03,1.4e-05,1.8e-03,8.0e-01,.42154,,,,
"     P/2019 A8 (PANSTARRS)",0.4274,1.873,2.97,127.89,20.38,4.67,5.91,ETc,37,,,,,1003611,P,,7.7,,33.5,,,,,,,,"JPL 8",2458498.5,58498,2019-01-15.0,J2000,3.27,22.88,0.1667,2458361.21,2.16e+03,0.885,344,0.352,3.02,4.3e-03,3.4e-02,5.4e-03,6.8e-04,9.1e-02,4.7e-01,5.4e-01,4.9e-02,2.6e-03,1.1e+00,3.4e+01,.53498,,,,
"     C/2019 A9 (PANSTARRS)",0.9633,1.426,84.34,278.37,237.80,76.22,242,COM,199,,,,,1003613,C,,10.3,,17.5,,,,,,,,"JPL 13",2458567.5,58567,2019-03-25.0,J2000,38.82,359.50,0.004074,2458691.03,8.84e+04,0.736,286,0.273,0.279,2.8e-06,2.9e-03,1.0e-06,8.6e-05,5.4e-05,5.4e-05,5.7e-05,5.8e-03,4.6e-07,1.6e-04,1.0e+01,.51407,,,,
"     C/2019 B1 (Africano)",0.9897,1.597,123.36,290.43,174.88,309.26,1.94e+03,COM,161,,,,,1003608,C,,17.4,,4.5,,,,,,,,"JPL 6",2458524.5,58524,2019-02-10.0,J2000,155.4,359.98,0.0005086,2458562.42,7.08e+05,0.616,240,3.59,-0.826,1.1e-04,1.6e+00,1.9e-05,4.5e-04,6.2e-04,2.2e-03,3.1e-04,3.3e+00,8.0e-06,3.1e-03,1.1e+04,.63652,,,,
"     P/2019 B2 (Groeller)",0.3729,2.417,16.83,176.46,358.71,5.29,7.56,JFc,187,,,,,1003612,P,,7.4,16.8,25.75,5.,0.03,,,,,,"JPL 9",2458543.5,58543,2019-03-01.0,J2000,3.853,347.10,0.1303,2458642.53,2.76e+03,1.42,553,0.304,2.88,1.8e-05,1.1e-04,1.4e-05,1.7e-04,2.6e-04,2.3e-03,6.0e-04,1.5e-04,5.6e-06,6.9e-03,1.2e-01,.82447,,,,
"     C/2019 B3 (PANSTARRS)",1.0021,6.823,66.54,358.43,263.92,,,HYP,293,,,,,1003614,C,,6.5,10.2,8.75,5.,0.03,,,,,,"JPL 40",2459382.5,59382,2021-06-17.0,J2000,-3243,0.00,5.338e-06,2459234.69,,6.46,2.51e+03,4.59,,1.3e-05,2.0e+01,1.2e-05,2.1e-05,2.8e-05,1.3e-04,7.2e-06,,4.8e-08,2.1e-03,,.44901,,,,
